GLOBALSTAR M063 [+]     
1 26081U 00008A   24073.23948303 -.00000082  00000+0  71000-5 0  9996
2 26081  51.9927 245.5237 0005309 142.7211  28.2599 11.86151969102943
GLOBALSTAR M062 [-]     
1 26082U 00008B   24072.58767218 -.00000114  00000+0 -11032-3 0  9992
2 26082  51.9876  13.1664 0006708 204.7278 326.8836 12.43429445439198
GLOBALSTAR M060 [-]     
1 26083U 00008C   24073.00106494 -.00000138  00000+0 -46842-3 0  9997
2 26083  52.0000 266.7165 0002420 268.7361 258.2907 12.17628261 96185
GLOBALSTAR M064 [-]     
1 26084U 00008D   24072.77010938 -.00000075  00000+0  11935-3 0  9992
2 26084  52.0066 351.0291 0000905 254.5125 105.5608 11.88515857112233
GLOBALSTAR M065 [+]     
1 31571U 07020A   24073.51341924 -.00000074  00000+0  16710-3 0  9990
2 31571  51.9881 188.3570 0010156  11.2602  70.1772 12.61964290775540
GLOBALSTAR M069 [+]     
1 31573U 07020C   24073.53664039 -.00000049  00000+0  30437-3 0  9993
2 31573  51.9943 144.2381 0000911 155.8887 312.7291 12.62267150776308
GLOBALSTAR M072 [+]     
1 31574U 07020D   24072.91100722 -.00000108  00000+0 -21884-4 0  9993
2 31574  52.0060 241.9922 0001296  95.8435  68.7866 12.62268453774565
GLOBALSTAR M071 [P]     
1 31576U 07020F   24072.94317045 -.00000038  00000+0  36771-3 0  9997
2 31576  52.0057 151.1339 0001418 167.3266   3.4397 12.62269055437481
